NORAD_CAT_ID,OBJECT_NAME,OBJECT_TYPE,EPOCH,MEAN_MOTION,ECCENTRICITY,INCLINATION,RA_OF_ASC_NODE,ARG_OF_PERICENTER,MEAN_ANOMALY,BSTAR,MEAN_MOTION_DOT,MEAN_MOTION_DDOT,TLE_LINE0,TLE_LINE1,TLE_LINE2,SEMIMAJOR_AXIS,PERIOD,APOGEE,PERIGEE,DECAYED
53595.0,STARLINK-4684,PAYLOAD,2024-08-03 18:29:15,15.08841111,0.0001627,53.2182,340.961,86.1511,273.9667,0.00039102,5.941e-05,0.0,0 STARLINK-4684,1 53595U 22104H   24216.77031585  .00005941  00000-0  39102-3 0  9994,2 53595  53.2182 340.9610 0001627  86.1511 273.9667 15.08841111107335,6917.877,95.437,540.868,538.616,0.0
53595.0,STARLINK-4684,PAYLOAD,2024-08-04 11:58:31,15.08827272,0.0001639,53.2179,337.6932,78.3851,281.7325,8.9344e-05,1.134e-05,0.0,0 STARLINK-4684,1 53595U 22104H   24217.49897400  .00001134  00000-0  89344-4 0  9994,2 53595  53.2179 337.6932 0001639  78.3851 281.7325 15.08827272107446,6917.919,95.438,540.918,538.65,0.0
53595.0,STARLINK-4684,PAYLOAD,2024-08-04 15:09:17,15.08831655,0.00015,53.2169,337.0983,87.5452,272.5711,0.00011899,1.606e-05,0.0,0 STARLINK-4684,1 53595U 22104H   24217.63144769  .00001606  00000-0  11899-3 0  9996,2 53595  53.2169 337.0983 0001500  87.5452 272.5711 15.08831655108078,6917.906,95.438,540.809,538.733,0.0
53595.0,STARLINK-4684,PAYLOAD,2024-08-04 18:20:03,15.08837862,0.0001496,53.2174,336.5015,80.6312,279.485,0.00014507,2.021e-05,0.0,0 STARLINK-4684,1 53595U 22104H   24217.76392502  .00002021  00000-0  14507-3 0  9991,2 53595  53.2174 336.5015 0001496  80.6312 279.4850 15.08837862107487,6917.887,95.438,540.787,538.717,0.0
53595.0,STARLINK-4684,PAYLOAD,2024-08-05 13:24:39,15.08860918,0.000135,53.2169,332.9328,74.8588,285.2553,0.00056058,8.65e-05,0.0,0 STARLINK-4684,1 53595U 22104H   24218.55879586  .00008650  00000-0  56058-3 0  9992,2 53595  53.2169 332.9328 0001350  74.8588 285.2553 15.08860918107604,6917.816,95.436,540.615,538.748,0.0
53595.0,STARLINK-4684,PAYLOAD,2024-08-05 15:00:02,15.08868586,0.0001181,53.2162,332.6372,87.6317,272.481,0.00097736,0.00015313,0.0,0 STARLINK-4684,1 53595U 22104H   24218.62503371  .00015313  00000-0  97736-3 0  9998,2 53595  53.2162 332.6372 0001181  87.6317 272.4810 15.08868586108229,6917.793,95.436,540.475,538.841,0.0
53595.0,STARLINK-4684,PAYLOAD,2024-08-06 00:32:21,15.08855889,0.0001218,53.2163,330.8579,108.564,251.5485,0.00017881,2.56e-05,0.0,0 STARLINK-4684,1 53595U 22104H   24219.02247289  .00002560  00000-0  17881-3 0  9999,2 53595  53.2163 330.8579 0001218 108.5640 251.5485 15.08855889107678,6917.832,95.437,540.539,538.854,0.0
53595.0,STARLINK-4684,PAYLOAD,2024-08-06 11:40:04,15.08831493,0.0002177,53.2163,328.7695,86.327,273.7971,-0.00029336,-4.953e-05,0.0,0 STARLINK-4684,1 53595U 22104H   24219.48616153 -.00004953  00000-0 -29336-3 0  9997,2 53595  53.2163 328.7695 0002177  86.3270 273.7971 15.08831493107749,6917.906,95.438,541.277,538.265,0.0
53595.0,STARLINK-4684,PAYLOAD,2024-08-06 13:15:27,15.08827563,0.0001246,53.2166,328.4726,93.5382,266.5753,-0.00033084,-5.547e-05,0.0,0 STARLINK-4684,1 53595U 22104H   24219.55240015 -.00005547  00000-0 -33084-3 0  9990,2 53595  53.2166 328.4726 0001246  93.5382 266.5753 15.08827563108364,6917.918,95.438,540.645,538.921,0.0
53595.0,STARLINK-4684,PAYLOAD,2024-08-06 14:50:50,15.08832128,0.0001264,53.2168,328.1754,92.0404,268.0733,-3.5204e-06,-3.44e-06,0.0,0 STARLINK-4684,1 53595U 22104H   24219.61864035 -.00000344  00000-0 -35204-5 0  9999,2 53595  53.2168 328.1754 0001264  92.0404 268.0733 15.08832128108372,6917.904,95.438,540.644,538.895,0.0
53595.0,STARLINK-4684,PAYLOAD,2024-08-07 11:30:51,15.08856555,0.0001309,53.2169,324.3126,99.3242,260.7899,0.0013322,0.00020987,0.0,0 STARLINK-4684,1 53595U 22104H   24220.47976309  .00020987  00000-0  13322-2 0  9990,2 53595  53.2169 324.3126 0001309  99.3242 260.7899 15.08856555107892,6917.83,95.437,540.6,538.789,0.0
53595.0,STARLINK-4684,PAYLOAD,2024-08-08 12:57:01,15.0885754,0.0001571,53.2157,319.5552,77.5431,282.5737,0.00091342,0.00014286,0.0,0 STARLINK-4684,1 53595U 22104H   24221.53960032  .00014286  00000-0  91342-3 0  9998,2 53595  53.2157 319.5552 0001571  77.5431 282.5737 15.08857540108661,6917.827,95.436,540.779,538.605,0.0
53595.0,STARLINK-4684,PAYLOAD,2024-08-09 12:47:48,15.08848483,0.0001604,53.2166,315.0927,76.22,283.8971,0.00088052,0.00013756,0.0,0 STARLINK-4684,1 53595U 22104H   24222.53320165  .00013756  00000-0  88052-3 0  9991,2 53595  53.2166 315.0927 0001604  76.2200 283.8971 15.08848483108205,6917.854,95.437,540.829,538.61,0.0
53595.0,STARLINK-4684,PAYLOAD,2024-08-10 12:38:35,15.08844197,0.0001789,53.217,310.6316,83.3923,276.7272,0.00055874,8.617e-05,0.0,0 STARLINK-4684,1 53595U 22104H   24223.52680309  .00008617  00000-0  55874-3 0  9996,2 53595  53.2170 310.6316 0001789  83.3923 276.7272 15.08844197108357,6917.868,95.437,540.97,538.495,0.0
53595.0,STARLINK-4684,PAYLOAD,2024-08-10 15:49:21,15.08847373,0.0001638,53.217,310.034,86.2864,273.8315,0.00071969,0.00011187,0.0,0 STARLINK-4684,1 53595U 22104H   24223.65928230  .00011187  00000-0  71969-3 0  9997,2 53595  53.2170 310.0340 0001638  86.2864 273.8315 15.08847373108981,6917.858,95.437,540.856,538.59,0.0
53595.0,STARLINK-4684,PAYLOAD,2024-08-11 12:29:23,15.08833762,0.0002148,53.2167,306.1732,80.0197,280.1038,0.0003273,4.924e-05,0.0,0 STARLINK-4684,1 53595U 22104H   24224.52041275  .00004924  00000-0  32730-3 0  9993,2 53595  53.2167 306.1732 0002148  80.0197 280.1038 15.08833762108504,6917.899,95.438,541.25,538.278,0.0
53595.0,STARLINK-4684,PAYLOAD,2024-08-11 22:01:41,15.08854161,0.0001069,53.2166,304.3874,78.8693,281.2419,0.00088748,0.0001387,0.0,0 STARLINK-4684,1 53595U 22104H   24224.91784655  .00013870  00000-0  88748-3 0  9992,2 53595  53.2166 304.3874 0001069  78.8693 281.2419 15.08854161109172,6917.837,95.437,540.442,538.963,0.0
53595.0,STARLINK-4684,PAYLOAD,2024-08-12 04:23:14,15.08852251,0.0001261,53.2151,303.2007,90.6174,269.4962,0.00053749,8.279e-05,0.0,0 STARLINK-4684,1 53595U 22104H   24225.18280384  .00008279  00000-0  53749-3 0  9992,2 53595  53.2151 303.2007 0001261  90.6174 269.4962 15.08852251108608,6917.843,95.437,540.58,538.836,0.0
53595.0,STARLINK-4684,PAYLOAD,2024-08-12 12:20:08,15.08889711,8.83e-05,53.2157,301.7162,116.4729,243.6353,0.0014448,0.00022812,0.0,0 STARLINK-4684,1 53595U 22104H   24225.51399019  .00022812  00000-0  14448-2 0  9996,2 53595  53.2157 301.7162 0000883 116.4729 243.6353 15.08889711108655,6917.728,95.434,540.204,538.983,0.0
53595.0,STARLINK-4684,PAYLOAD,2024-08-12 13:55:31,15.089019,0.0001254,53.2157,301.4123,93.5138,266.5997,0.0017946,0.00028437,0.0,0 STARLINK-4684,1 53595U 22104H   24225.58022359  .00028437  00000-0  17946-2 0  9998,2 53595  53.2157 301.4123 0001254  93.5138 266.5997 15.08901900109273,6917.691,95.434,540.424,538.689,0.0
53595.0,STARLINK-4684,PAYLOAD,2024-08-12 15:30:54,15.08906798,0.0001127,53.2153,301.1141,91.2119,268.9002,0.0018223,0.00028886,0.0,0 STARLINK-4684,1 53595U 22104H   24225.64646009  .00028886  00000-0  18223-2 0  9996,2 53595  53.2153 301.1141 0001127  91.2119 268.9002 15.08906798108675,6917.676,95.433,540.321,538.762,0.0
53595.0,STARLINK-4684,PAYLOAD,2024-08-13 05:49:23,15.08823655,0.0001256,53.2161,298.4399,111.7716,248.341,-0.00084355,-0.00013682,0.0,0 STARLINK-4684,1 53595U 22104H   24226.24263795 -.00013682  00000-0 -84355-3 0  9990,2 53595  53.2161 298.4399 0001256 111.7716 248.3410 15.08823655108766,6917.93,95.439,540.664,538.926,0.0
53595.0,STARLINK-4684,PAYLOAD,2024-08-13 10:35:34,15.08769119,0.0001397,53.2161,297.5481,95.0805,265.0347,-0.0021513,-0.00034297,0.0,0 STARLINK-4684,1 53595U 22104H   24226.44137456 -.00034297  00000-0 -21513-2 0  9997,2 53595  53.2161 297.5481 0001397  95.0805 265.0347 15.08769119108799,6918.097,95.442,540.929,538.996,0.0
53595.0,STARLINK-4684,PAYLOAD,2024-08-13 13:46:21,15.08775145,0.0001169,53.2162,296.953,100.11,260.0023,-0.0014931,-0.0002393,0.0,0 STARLINK-4684,1 53595U 22104H   24226.57386428 -.00023930  00000-0 -14931-2 0  9994,2 53595  53.2162 296.9530 0001169 100.1100 260.0023 15.08775145109424,6918.079,95.442,540.752,539.135,0.0
53595.0,STARLINK-4684,PAYLOAD,2024-08-13 21:43:17,15.08791955,6.21e-05,53.215,295.4684,145.4484,214.6549,0.00052344,8.042e-05,0.0,0 STARLINK-4684,1 53595U 22104H   24226.90506327  .00008042  00000-0  52344-3 0  9999,2 53595  53.2150 295.4684 0000621 145.4484 214.6549 15.08791955109474,6918.027,95.441,540.322,539.463,0.0
53595.0,STARLINK-4684,PAYLOAD,2024-08-14 12:01:46,15.08844637,0.0001159,53.2157,292.7897,98.104,262.0084,0.0018152,0.00028723,0.0,0 STARLINK-4684,1 53595U 22104H   24227.50122794  .00028723  00000-0  18152-2 0  9994,2 53595  53.2157 292.7897 0001159  98.1040 262.0084 15.08844637108955,6917.866,95.437,540.533,538.929,0.0
53595.0,STARLINK-4684,PAYLOAD,2024-08-14 21:34:04,15.08851589,0.0001113,53.2148,291.004,88.2103,271.9016,0.00039708,6.039e-05,0.0,0 STARLINK-4684,1 53595U 22104H   24227.89866315  .00006039  00000-0  39708-3 0  9997,2 53595  53.2148 291.0040 0001113  88.2103 271.9016 15.08851589109620,6917.845,95.437,540.48,538.94,0.0
53595.0,STARLINK-4684,PAYLOAD,2024-08-15 10:17:09,15.08849649,0.0001136,53.2158,288.6259,92.2264,267.8859,0.00020853,3.033e-05,0.0,0 STARLINK-4684,1 53595U 22104H   24228.42858061  .00003033  00000-0  20853-3 0  9998,2 53595  53.2158 288.6259 0001136  92.2264 267.8859 15.08849649109705,6917.851,95.437,540.502,538.93,0.0
53595.0,STARLINK-4684,PAYLOAD,2024-08-15 21:24:51,15.08850343,0.0001098,53.2157,286.5446,91.4095,268.7023,0.0001762,2.518e-05,0.0,0 STARLINK-4684,1 53595U 22104H   24228.89225789  .00002518  00000-0  17620-3 0  9999,2 53595  53.2157 286.5446 0001098  91.4095 268.7023 15.08850343109165,6917.849,95.437,540.473,538.954,0.0
53595.0,STARLINK-4684,PAYLOAD,2024-08-16 10:07:55,15.08853943,0.0001086,53.2153,284.1661,89.4848,270.6268,9.7952e-05,1.272e-05,0.0,0 STARLINK-4684,1 53595U 22104H   24229.42217354  .00001272  00000-0  97952-4 0  9991,2 53595  53.2153 284.1661 0001086  89.4848 270.6268 15.08853943109852,6917.838,95.437,540.454,538.951,0.0
